*******************************************************************************
Ephemeris / WWW_USER Mon Mar 10 08:40:11 2025 Pasadena, USA      / Horizons    
*******************************************************************************
Target body name: ASASSN (C/2017 O1)              {source: JPL#21}
Center body name: Earth (399)                     {source: DE441}
Center-site name: Mauna Kea
*******************************************************************************
Start time      : A.D. 2018-Nov-15 03:52:00.0000 UT      
Stop  time      : A.D. 2018-Nov-15 16:20:00.0000 UT      
Step-size       : 1 minutes
*******************************************************************************
Target pole/equ : undefined
Target radii    : undefined                                                    
Center geodetic : 204.5278, 19.8260847, 4.21024   {E-lon(deg),Lat(deg),Alt(km)}
Center cylindric: 204.5278, 6006.35451, 2151.0229 {E-lon(deg),Dxy(km),Dz(km)}
Center pole/equ : ITRF93                          {East-longitude positive}
Center radii    : 6378.137, 6378.137, 6356.752 km {Equator_a, b, pole_c}       
Target primary  : Sun
Vis. interferer : MOON (R_eq= 1737.400) km        {source: DE441}
Rel. light bend : Sun                             {source: DE441}
Rel. lght bnd GM: 1.3271E+11 km^3/s^2                                          
Small-body perts: Yes                             {source: SB441-N16}
Atmos refraction: NO (AIRLESS)
RA format       : HMS
Time format     : CAL 
Calendar mode   : Mixed Julian/Gregorian
RTS-only print  : NO       
EOP file        : eop.250307.p250603                                           
EOP coverage    : DATA-BASED 1962-JAN-20 TO 2025-MAR-07. PREDICTS-> 2025-JUN-02
Units conversion: 1 au= 149597870.700 km, c= 299792.458 km/s, 1 day= 86400.0 s 
Table cut-offs 1: Elevation (-90.0deg=NO ),Airmass (>38.000=NO), Daylight (YES)
Table cut-offs 2: Solar elongation (  0.0,180.0=NO ),Local Hour Angle( 0.0=NO )
Table cut-offs 3: RA/DEC angular rate (     0.0=NO )                           
*******************************************************************************
Initial IAU76/J2000 heliocentric ecliptic osculating elements (au, days, deg.):
  EPOCH=  2458039.5 ! 2017-Oct-13.0000000 (TDB)    RMSW= n.a.                  
   EC= .9964254882304144   QR= 1.498687032290766   TP= 2458041.2851755521      
   OM= 25.80948799039273   W= 20.90785287564418    IN= 39.84841297991522       
  Equivalent ICRF heliocentric cartesian coordinates (au, au/d):
   X= 1.103880574170232E+00  Y= 7.544591652134763E-01  Z= 6.774428678789283E-01
  VX=-1.240653547490291E-02 VY= 4.322571932715848E-03 VZ= 1.488380440184248E-02
Comet physical (GM= km^3/s^2; RAD= km):                                        
   GM= n.a.                RAD= n.a.                                           
   M1=  12.4     M2=  n.a.     k1=  8.75   k2= n.a.     PHCOF= n.a.            
*******************************************************************************
 Date__(UT)__HR:MN     R.A._________(ICRF)_________DEC
******************************************************
$$SOE
 2018-Nov-15 14:17     12 34 38.244663 +23 48 44.65200
 2018-Nov-15 14:18     12 34 38.270547 +23 48 44.57562
 2018-Nov-15 14:19     12 34 38.296428 +23 48 44.49925
 2018-Nov-15 14:20     12 34 38.322306 +23 48 44.42288
 2018-Nov-15 14:21     12 34 38.348182 +23 48 44.34650
 2018-Nov-15 14:22     12 34 38.374056 +23 48 44.27013
 2018-Nov-15 14:23     12 34 38.399928 +23 48 44.19375
 2018-Nov-15 14:24     12 34 38.425797 +23 48 44.11738
 2018-Nov-15 14:25     12 34 38.451663 +23 48 44.04100
 2018-Nov-15 14:26     12 34 38.477528 +23 48 43.96463
 2018-Nov-15 14:27     12 34 38.503390 +23 48 43.88825
 2018-Nov-15 14:28     12 34 38.529250 +23 48 43.81187
 2018-Nov-15 14:29     12 34 38.555107 +23 48 43.73549
 2018-Nov-15 14:30     12 34 38.580963 +23 48 43.65912
 2018-Nov-15 14:31     12 34 38.606815 +23 48 43.58274
 2018-Nov-15 14:32     12 34 38.632666 +23 48 43.50636
 2018-Nov-15 14:33     12 34 38.658514 +23 48 43.42998
 2018-Nov-15 14:34     12 34 38.684360 +23 48 43.35359
 2018-Nov-15 14:35     12 34 38.710204 +23 48 43.27721
 2018-Nov-15 14:36     12 34 38.736045 +23 48 43.20083
 2018-Nov-15 14:37     12 34 38.761884 +23 48 43.12444
 2018-Nov-15 14:38     12 34 38.787721 +23 48 43.04806
 2018-Nov-15 14:39     12 34 38.813555 +23 48 42.97167
 2018-Nov-15 14:40     12 34 38.839387 +23 48 42.89528
 2018-Nov-15 14:41     12 34 38.865217 +23 48 42.81889
 2018-Nov-15 14:42     12 34 38.891044 +23 48 42.74250
 2018-Nov-15 14:43     12 34 38.916870 +23 48 42.66611
 2018-Nov-15 14:44     12 34 38.942693 +23 48 42.58971
 2018-Nov-15 14:45     12 34 38.968513 +23 48 42.51332
 2018-Nov-15 14:46     12 34 38.994332 +23 48 42.43692
 2018-Nov-15 14:47     12 34 39.020148 +23 48 42.36052
 2018-Nov-15 14:48     12 34 39.045962 +23 48 42.28412
 2018-Nov-15 14:49     12 34 39.071773 +23 48 42.20772
 2018-Nov-15 14:50     12 34 39.097583 +23 48 42.13132
 2018-Nov-15 14:51     12 34 39.123390 +23 48 42.05491
 2018-Nov-15 14:52     12 34 39.149195 +23 48 41.97851
 2018-Nov-15 14:53     12 34 39.174997 +23 48 41.90210
 2018-Nov-15 14:54     12 34 39.200798 +23 48 41.82569
 2018-Nov-15 14:55     12 34 39.226596 +23 48 41.74928
 2018-Nov-15 14:56     12 34 39.252392 +23 48 41.67286
 2018-Nov-15 14:57     12 34 39.278185 +23 48 41.59645
 2018-Nov-15 14:58     12 34 39.303977 +23 48 41.52003
 2018-Nov-15 14:59     12 34 39.329766 +23 48 41.44361
 2018-Nov-15 15:00     12 34 39.355553 +23 48 41.36718
 2018-Nov-15 15:01     12 34 39.381338 +23 48 41.29076
 2018-Nov-15 15:02     12 34 39.407120 +23 48 41.21433
 2018-Nov-15 15:03     12 34 39.432901 +23 48 41.13790
 2018-Nov-15 15:04     12 34 39.458679 +23 48 41.06147
 2018-Nov-15 15:05     12 34 39.484455 +23 48 40.98504
 2018-Nov-15 15:06     12 34 39.510228 +23 48 40.90860
 2018-Nov-15 15:07     12 34 39.536000 +23 48 40.83216
 2018-Nov-15 15:08     12 34 39.561769 +23 48 40.75572
 2018-Nov-15 15:09     12 34 39.587537 +23 48 40.67928
 2018-Nov-15 15:10     12 34 39.613302 +23 48 40.60283
 2018-Nov-15 15:11     12 34 39.639064 +23 48 40.52638
 2018-Nov-15 15:12     12 34 39.664825 +23 48 40.44993
 2018-Nov-15 15:13     12 34 39.690584 +23 48 40.37347
 2018-Nov-15 15:14     12 34 39.716340 +23 48 40.29701
 2018-Nov-15 15:15 A   12 34 39.742094 +23 48 40.22055
 2018-Nov-15 15:16 A   12 34 39.767846 +23 48 40.14409
 2018-Nov-15 15:17 A   12 34 39.793596 +23 48 40.06762
 2018-Nov-15 15:18 A   12 34 39.819344 +23 48 39.99115
 2018-Nov-15 15:19 A   12 34 39.845089 +23 48 39.91468
 2018-Nov-15 15:20 A   12 34 39.870833 +23 48 39.83820
 2018-Nov-15 15:21 A   12 34 39.896574 +23 48 39.76172
 2018-Nov-15 15:22 A   12 34 39.922313 +23 48 39.68524
 2018-Nov-15 15:23 A   12 34 39.948051 +23 48 39.60876
 2018-Nov-15 15:24 A   12 34 39.973786 +23 48 39.53227
 2018-Nov-15 15:25 A   12 34 39.999518 +23 48 39.45578
 2018-Nov-15 15:26 A   12 34 40.025249 +23 48 39.37928
 2018-Nov-15 15:27 A   12 34 40.050978 +23 48 39.30278
 2018-Nov-15 15:28 A   12 34 40.076705 +23 48 39.22628
 2018-Nov-15 15:29 A   12 34 40.102429 +23 48 39.14977
 2018-Nov-15 15:30 A   12 34 40.128152 +23 48 39.07326
 2018-Nov-15 15:31 A   12 34 40.153872 +23 48 38.99675
 2018-Nov-15 15:32 A   12 34 40.179590 +23 48 38.92023
 2018-Nov-15 15:33 A   12 34 40.205306 +23 48 38.84371
 2018-Nov-15 15:34 A   12 34 40.231021 +23 48 38.76719
 2018-Nov-15 15:35 A   12 34 40.256733 +23 48 38.69066
 2018-Nov-15 15:36 A   12 34 40.282443 +23 48 38.61413
 2018-Nov-15 15:37 A   12 34 40.308151 +23 48 38.53759
 2018-Nov-15 15:38 A   12 34 40.333857 +23 48 38.46105
 2018-Nov-15 15:39 A   12 34 40.359561 +23 48 38.38451
 2018-Nov-15 15:40 A   12 34 40.385262 +23 48 38.30796
 2018-Nov-15 15:41 N   12 34 40.410962 +23 48 38.23141
 2018-Nov-15 15:42 N   12 34 40.436660 +23 48 38.15486
 2018-Nov-15 15:43 N   12 34 40.462356 +23 48 38.07830
 2018-Nov-15 15:44 N   12 34 40.488050 +23 48 38.00173
 2018-Nov-15 15:45 N   12 34 40.513742 +23 48 37.92517
 2018-Nov-15 15:46 N   12 34 40.539431 +23 48 37.84859
 2018-Nov-15 15:47 N   12 34 40.565119 +23 48 37.77202
 2018-Nov-15 15:48 N   12 34 40.590805 +23 48 37.69544
 2018-Nov-15 15:49 N   12 34 40.616489 +23 48 37.61885
 2018-Nov-15 15:50 N   12 34 40.642171 +23 48 37.54226
 2018-Nov-15 15:51 N   12 34 40.667851 +23 48 37.46567
 2018-Nov-15 15:52 N   12 34 40.693529 +23 48 37.38907
 2018-Nov-15 15:53 N   12 34 40.719205 +23 48 37.31247
 2018-Nov-15 15:54 N   12 34 40.744879 +23 48 37.23586
 2018-Nov-15 15:55 N   12 34 40.770551 +23 48 37.15925
 2018-Nov-15 15:56 N   12 34 40.796221 +23 48 37.08263
 2018-Nov-15 15:57 N   12 34 40.821889 +23 48 37.00601
 2018-Nov-15 15:58 N   12 34 40.847556 +23 48 36.92938
 2018-Nov-15 15:59 N   12 34 40.873220 +23 48 36.85275
 2018-Nov-15 16:00 N   12 34 40.898883 +23 48 36.77611
 2018-Nov-15 16:01 N   12 34 40.924543 +23 48 36.69947
 2018-Nov-15 16:02 N   12 34 40.950202 +23 48 36.62283
 2018-Nov-15 16:03 N   12 34 40.975859 +23 48 36.54618
 2018-Nov-15 16:04 N   12 34 41.001514 +23 48 36.46952
 2018-Nov-15 16:05 N   12 34 41.027167 +23 48 36.39286
 2018-Nov-15 16:06 N   12 34 41.052818 +23 48 36.31620
 2018-Nov-15 16:07 N   12 34 41.078467 +23 48 36.23952
 2018-Nov-15 16:08 C   12 34 41.104114 +23 48 36.16285
 2018-Nov-15 16:09 C   12 34 41.129760 +23 48 36.08617
 2018-Nov-15 16:10 C   12 34 41.155404 +23 48 36.00948
 2018-Nov-15 16:11 C   12 34 41.181045 +23 48 35.93279
 2018-Nov-15 16:12 C   12 34 41.206685 +23 48 35.85609
 2018-Nov-15 16:13 C   12 34 41.232324 +23 48 35.77939
 2018-Nov-15 16:14 C   12 34 41.257960 +23 48 35.70268
 2018-Nov-15 16:15 C   12 34 41.283595 +23 48 35.62597
 2018-Nov-15 16:16 C   12 34 41.309227 +23 48 35.54925
 2018-Nov-15 16:17 C   12 34 41.334858 +23 48 35.47253
 2018-Nov-15 16:18 C   12 34 41.360487 +23 48 35.39580
 2018-Nov-15 16:19 C   12 34 41.386115 +23 48 35.31906
 2018-Nov-15 16:20 C   12 34 41.411740 +23 48 35.24232
